LEMUR-1                 
1 40044U 14033AL  26200.69765586  .00000669  00000+0  82651-4 0  9991
2 40044  97.7915 349.7893 0047378 332.9845  26.8905 14.85343875650298
LEMUR-2-GREENBERG       
1 42837U 17042N   26200.48787179  .00008759  00000+0  28370-3 0  9990
2 42837  97.3839  20.9886 0007431 241.5042 118.5452 15.32233564493333
LEMUR-2-ANDIS           
1 42838U 17042P   26200.44011883  .00011782  00000+0  33770-3 0  9999
2 42838  97.3691  21.2418 0007413 240.5981 119.4524 15.36030642493400
LEMUR-2-MONSON          
1 42839U 17042Q   26200.76389591  .00007784  00000+0  28045-3 0  9995
2 42839  97.4102  21.1846 0005603 226.0215 134.0563 15.28825454493142
LEMUR-2-FURIAUS         
1 42840U 17042R   26200.43830536  .00009277  00000+0  31005-3 0  9990
2 42840  97.3788  18.8215 0005723 311.1861  48.8887 15.31212862493140
LEMUR-2-PETERG          
1 42841U 17042S   26200.44348177  .00010813  00000+0  31943-3 0  9996
2 42841  97.4004  25.5577 0003631 202.2189 157.8897 15.35124199493385
LEMUR-2-DEMBITZ         
1 42842U 17042T   26200.78487065  .00009257  00000+0  30962-3 0  9994
2 42842  97.3839  22.2135 0005174 252.9643 107.1031 15.31193718493338
LEMUR-2-ZACHARY         
1 42845U 17042W   26200.82078154  .00032150  00000+0  51576-3 0  9999
2 42845  97.3580  33.2166 0002901 223.8802 136.2221 15.53002308494264
LEMUR-2-AMANDA-SVANTE   
1 48269U 21034B   26200.75028903  .00017942  00000+0  51134-3 0  9992
2 48269  97.5740 279.9385 0004806 133.4502 226.7142 15.36130619286052
LEMUR-2-SPECIAL-K       
1 48273U 21034F   26200.77933194  .00189173  00000+0  11782-2 0  9996
2 48273  97.5623 290.2833 0006263 210.6848 149.4051 15.76367989286800
LEMUR-2-EMBRIONOVIS     
1 56970U 23084AQ  26200.34320846  .00007667  00000+0  20526-3 0  9997
2 56970  97.6331 345.8022 0008671 191.0814 169.0241 15.38295857172622
LEMUR-2-DEVERILL-M-T    
1 57391U 23100F   26200.58089179  .00014094  00000+0  34188-3 0  9992
2 57391  99.4445 248.7356 0004771 278.7246  81.3454 15.41222703166232
LEMUR-2-BASS            
1 58259U 23174D   26200.75227615  .00009657  00000+0  21302-3 0  9998
2 58259  97.3837 285.9427 0007365  64.5844 295.6166 15.44086347150381
LEMUR-2-JK0903EM1407    
1 58336U 23174CJ  26200.82216882  .00016037  00000+0  25655-3 0  9991
2 58336  97.3916 292.2502 0003114  14.6736 345.4607 15.53221514150790
LEMUR-2-MJR092620       
1 58340U 23174CN  26200.79167546  .00011328  00000+0  23424-3 0  9994
2 58340  97.3967 291.4475 0004856  13.2773 346.8603 15.45964734150689
LEMUR-2-NIMBUS2000      
1 58899U 24022A   26200.48882309  .00012050  00000+0  29171-3 0  9991
2 58899  97.4081  50.9197 0008300  13.8440 346.3033 15.41225793137240
